{"type":"FeatureCollection", "features":[
{"type":"Feature","geometry":{"type":"Polygon","coordinates":[[[-82.0233415,33.5199375,0],[-82.0402501,33.4986826,0],[-82.0457433,33.4910239,0],[-82.0366452,33.4792839,0],[-82.0307229,33.4707643,0],[-82.0054028,33.4690459,0],[-81.9939015,33.4865142,0],[-82.0096944,33.5141413,0],[-82.0233415,33.5199375,0]]]},"properties":{"name":"Augusta National Golf Club"}},
{"type":"Feature","geometry":{"type":"Polygon","coordinates":[[[-85.4757129,38.2513199,0],[-85.4818069,38.2483878,0],[-85.4838239,38.2466352,0],[-85.4882871,38.2390515,0],[-85.479232,38.2365908,0],[-85.4770004,38.2359503,0],[-85.4635679,38.2369616,0],[-85.4573451,38.2343323,0],[-85.4554569,38.2333547,0],[-85.4537402,38.2336244,0],[-85.4549848,38.2360515,0],[-85.4609071,38.2415121,0],[-85.4757129,38.2513199,0]]]},"properties":{"name":"Valhalla Golf Club"}},
{"type":"Feature","geometry":{"type":"Polygon","coordinates":[[[-79.4755325,35.2049447,0],[-79.4870338,35.2011575,0],[-79.5017967,35.1882516,0],[-79.5054016,35.1698712,0],[-79.4937286,35.1578025,0],[-79.449955,35.1646791,0],[-79.4346771,35.1743615,0],[-79.4533882,35.2000353,0],[-79.4693527,35.2062071,0],[-79.4755325,35.2049447,0]]]},"properties":{"name":"Pinehurst Resort (Course No. 2)"}},
{"type":"Feature","geometry":{"type":"Polygon","coordinates":[[[-80.8469951,35.1198325,0],[-80.8514583,35.1172349,0],[-80.8509862,35.1127766,0],[-80.8442485,35.1078265,0],[-80.8320176,35.1105298,0],[-80.8307731,35.1148478,0],[-80.8294856,35.1173051,0],[-80.8324897,35.1208856,0],[-80.8430898,35.1209558,0],[-80.8469951,35.1198325,0]]]},"properties":{"name":"Quail Hollow Club"}},
{"type":"Feature","geometry":{"type":"Polygon","coordinates":[[[-79.8205445,40.5352883,0],[-79.8421738,40.5278841,0],[-79.8433755,40.5261878,0],[-79.8348782,40.5242632,0],[-79.8328612,40.5237086,0],[-79.8181842,40.5268729,0],[-79.808614,40.527721,0],[-79.8012755,40.5289605,0],[-79.8023913,40.5357775,0],[-79.8205445,40.5352883,0]]]},"properties":{"name":"Oakmont Country Club"}},
{"type":"Feature","geometry":{"type":"Polygon","coordinates":[[[-118.4240761,34.0803766,0],[-118.4321871,34.0769643,0],[-118.4304276,34.0729119,0],[-118.4277239,34.0712767,0],[-118.4253636,34.0685039,0],[-118.4239045,34.0667264,0],[-118.4222308,34.0638823,0],[-118.4198275,34.0608248,0],[-118.4140339,34.0646644,0],[-118.4162655,34.0691793,0],[-118.4184542,34.072592,0],[-118.4207287,34.0758268,0],[-118.4240761,34.0803766,0]]]},"properties":{"name":"The Los Angeles Country Club (North Course)"}},
{"type":"Feature","geometry":{"type":"Polygon","coordinates":[[[-77.5481781,43.1165535,0],[-77.5485214,43.1118543,0],[-77.5409683,43.1067161,0],[-77.5327286,43.1027055,0],[-77.5268062,43.1023295,0],[-77.5224289,43.0992587,0],[-77.5159916,43.1060894,0],[-77.5175365,43.1122302,0],[-77.5170215,43.1171173,0],[-77.5282654,43.1273289,0],[-77.5481781,43.1165535,0]]]},"properties":{"name":"Oak Hill Country Club (East Course)"}}
]}
